{
    "links": {
        "self": "http://www.neowsapp.com/rest/v1/neo/3828427?api_key=iIulBulltgU6a56xZRHN4H3l9WmuAYTsLGpBGhQ2"
    },
    "id": "3828427",
    "neo_reference_id": "3828427",
    "name": "(2018 RG5)",
    "designation": "2018 RG5",
    "nasa_jpl_url": "http://ssd.jpl.nasa.gov/sbdb.cgi?sstr=3828427",
    "absolute_magnitude_h": 26.7,
    "estimated_diameter": {
        "kilometers": {
            "estimated_diameter_min": 0.0121494041,
            "estimated_diameter_max": 0.0271668934
        },
        "meters": {
            "estimated_diameter_min": 12.14940408,
            "estimated_diameter_max": 27.1668934089
        },
        "miles": {
            "estimated_diameter_min": 0.0075492874,
            "estimated_diameter_max": 0.0168807197
        },
        "feet": {
            "estimated_diameter_min": 39.8602508817,
            "estimated_diameter_max": 89.1302305717
        }
    },
    "is_potentially_hazardous_asteroid": false,
    "close_approach_data": [
        {
            "close_approach_date": "2012-12-28",
            "close_approach_date_full": "2012-Dec-28 00:39",
            "epoch_date_close_approach": 1356655140000,
            "relative_velocity": {
                "kilometers_per_second": "18.743789182",
                "kilometers_per_hour": "67477.6410552828",
                "miles_per_hour": "41927.9820212672"
            },
            "miss_distance": {
                "astronomical": "0.389849359",
                "lunar": "151.651400651",
                "kilometers": "58320633.72726533",
                "miles": "36238761.384428354"
            },
            "orbiting_body": "Earth"
        },
        {
            "close_approach_date": "2014-12-15",
            "close_approach_date_full": "2014-Dec-15 02:47",
            "epoch_date_close_approach": 1418611620000,
            "relative_velocity": {
                "kilometers_per_second": "12.2270047785",
                "kilometers_per_hour": "44017.217202443",
                "miles_per_hour": "27350.5869889291"
            },
            "miss_distance": {
                "astronomical": "0.1934616133",
                "lunar": "75.2565675737",
                "kilometers": "28941445.276443671",
                "miles": "17983380.1943618198"
            },
            "orbiting_body": "Earth"
        },
        {
            "close_approach_date": "2018-09-16",
            "close_approach_date_full": "2018-Sep-16 18:29",
            "epoch_date_close_approach": 1537122540000,
            "relative_velocity": {
                "kilometers_per_second": "8.286300187",
                "kilometers_per_hour": "29830.6806732994",
                "miles_per_hour": "18535.6248883621"
            },
            "miss_distance": {
                "astronomical": "0.0115482351",
                "lunar": "4.4922634539",
                "kilometers": "1727591.373219237",
                "miles": "1073475.5015979906"
            },
            "orbiting_body": "Earth"
        },
        {
            "close_approach_date": "2020-08-22",
            "close_approach_date_full": "2020-Aug-22 02:48",
            "epoch_date_close_approach": 1598064480000,
            "relative_velocity": {
                "kilometers_per_second": "16.4818782065",
                "kilometers_per_hour": "59334.7615435652",
                "miles_per_hour": "36868.3133602225"
            },
            "miss_distance": {
                "astronomical": "0.296692043",
                "lunar": "115.413204727",
                "kilometers": "44384497.67874841",
                "miles": "27579247.990851658"
            },
            "orbiting_body": "Earth"
        },
        {
            "close_approach_date": "2062-01-17",
            "close_approach_date_full": "2062-Jan-17 07:37",
            "epoch_date_close_approach": 2904709020000,
            "relative_velocity": {
                "kilometers_per_second": "5.6618331798",
                "kilometers_per_hour": "20382.5994473394",
                "miles_per_hour": "12664.9546399316"
            },
            "miss_distance": {
                "astronomical": "0.497400912",
                "lunar": "193.488954768",
                "kilometers": "74410116.97125744",
                "miles": "46236302.680095072"
            },
            "orbiting_body": "Earth"
        }
    ],
    "orbital_data": {
        "orbit_id": "4",
        "orbit_determination_date": "2018-09-18 07:19:15",
        "first_observation_date": "2018-09-12",
        "last_observation_date": "2018-09-18",
        "data_arc_in_days": 6,
        "observations_used": 46,
        "orbit_uncertainty": "7",
        "minimum_orbit_intersection": ".00608134",
        "jupiter_tisserand_invariant": "4.332",
        "epoch_osculation": "2459000.5",
        "eccentricity": ".3937965699264829",
        "semi_major_axis": "1.562579188529143",
        "inclination": "6.04716500704521",
        "ascending_node_longitude": "172.9173816251621",
        "orbital_period": "713.4466130242506",
        "perihelion_distance": ".9472408638478594",
        "perihelion_argument": "220.6970920825242",
        "aphelion_distance": "2.177917513210427",
        "perihelion_time": "2459124.283167483968",
        "mean_anomaly": "297.5399091106009",
        "mean_motion": ".5045927661972982",
        "equinox": "J2000",
        "orbit_class": {
            "orbit_class_type": "APO",
            "orbit_class_description": "Near-Earth asteroid orbits which cross the Earth’s orbit similar to that of 1862 Apollo",
            "orbit_class_range": "a (semi-major axis) > 1.0 AU; q (perihelion) < 1.017 AU"
        }
    },
    "is_sentry_object": false
}